CSS (TIANHE)            
1 48274U 21035A   24135.17874526  .00049453  00000+0  50660-3 0  9995
2 48274  41.4682 290.8497 0003459 336.3959  23.6722 15.64129322173772
